[
  {
    "OBJECT_NAME": "STARLINK-2550",
    "OBJECT_ID": "21036T",
    "EPOCH": "2025-11-11T06:21:46.539072",
    "MEAN_MOTION": 15.06406639,
    "ECCENTRICITY": 0.0001468,
    "INCLINATION": 53.0544,
    "RA_OF_ASC_NODE": 253.2452,
    "ARG_OF_PERICENTER": 103.6059,
    "MEAN_ANOMALY": 256.5094,
    "EPHEMERIS_TYPE": 0,
    "CLASSIFICATION_TYPE": "U",
    "NORAD_CAT_ID": 48293,
    "ELEMENT_SET_NO": 999,
    "REV_AT_EPOCH": 25046,
    "BSTAR": 0.00040494,
    "MEAN_MOTION_DOT": 5.756e-05,
    "MEAN_MOTION_DDOT": 0.0,
    "TLE_LINE1": "1 48293U 21036T   25315.26512198  .00005756  00000+0  40494-3 0  9994",
    "TLE_LINE2": "2 48293  53.0544 253.2452 0001468 103.6059 256.5094 15.06406639250463",
    "COMMENT": "Grouped by shell and plane from TLE"
  },
  {
    "OBJECT_NAME": "STARLINK-2533",
    "OBJECT_ID": "21036U",
    "EPOCH": "2025-11-11T03:05:23.620704",
    "MEAN_MOTION": 15.06394333,
    "ECCENTRICITY": 0.0001294,
    "INCLINATION": 53.0554,
    "RA_OF_ASC_NODE": 253.8607,
    "ARG_OF_PERICENTER": 86.3817,
    "MEAN_ANOMALY": 273.732,
    "EPHEMERIS_TYPE": 0,
    "CLASSIFICATION_TYPE": "U",
    "NORAD_CAT_ID": 48294,
    "ELEMENT_SET_NO": 999,
    "REV_AT_EPOCH": 25044,
    "BSTAR": 0.00010808,
    "MEAN_MOTION_DOT": 1.329e-05,
    "MEAN_MOTION_DDOT": 0.0,
    "TLE_LINE1": "1 48294U 21036U   25315.12874561  .00001329  00000+0  10808-3 0  9993",
    "TLE_LINE2": "2 48294  53.0554 253.8607 0001294  86.3817 273.7320 15.06394333250447",
    "COMMENT": "Grouped by shell and plane from TLE"
  },
  {
    "OBJECT_NAME": "STARLINK-2535",
    "OBJECT_ID": "21036V",
    "EPOCH": "2025-11-11T03:00:05.667840",
    "MEAN_MOTION": 15.0639105,
    "ECCENTRICITY": 0.0001521,
    "INCLINATION": 53.0534,
    "RA_OF_ASC_NODE": 253.8751,
    "ARG_OF_PERICENTER": 84.998,
    "MEAN_ANOMALY": 275.1182,
    "EPHEMERIS_TYPE": 0,
    "CLASSIFICATION_TYPE": "U",
    "NORAD_CAT_ID": 48295,
    "ELEMENT_SET_NO": 999,
    "REV_AT_EPOCH": 25044,
    "BSTAR": 5.585900000000001e-05,
    "MEAN_MOTION_DOT": 5.5e-06,
    "MEAN_MOTION_DDOT": 0.0,
    "TLE_LINE1": "1 48295U 21036V   25315.12506560  .00000550  00000+0  55859-4 0  9996",
    "TLE_LINE2": "2 48295  53.0534 253.8751 0001521  84.9980 275.1182 15.06391050250449",
    "COMMENT": "Grouped by shell and plane from TLE"
  },
  {
    "OBJECT_NAME": "STARLINK-2559",
    "OBJECT_ID": "21036Y",
    "EPOCH": "2025-11-11T05:55:14.225952",
    "MEAN_MOTION": 15.06406816,
    "ECCENTRICITY": 0.0001215,
    "INCLINATION": 53.0535,
    "RA_OF_ASC_NODE": 253.3297,
    "ARG_OF_PERICENTER": 90.1305,
    "MEAN_ANOMALY": 269.9823,
    "EPHEMERIS_TYPE": 0,
    "CLASSIFICATION_TYPE": "U",
    "NORAD_CAT_ID": 48298,
    "ELEMENT_SET_NO": 999,
    "REV_AT_EPOCH": 25046,
    "BSTAR": 0.00067151,
    "MEAN_MOTION_DOT": 9.736e-05,
    "MEAN_MOTION_DDOT": 0.0,
    "TLE_LINE1": "1 48298U 21036Y   25315.24669243  .00009736  00000+0  67151-3 0  9992",
    "TLE_LINE2": "2 48298  53.0535 253.3297 0001215  90.1305 269.9823 15.06406816250465",
    "COMMENT": "Grouped by shell and plane from TLE"
  },
  {
    "OBJECT_NAME": "STARLINK-2557",
    "OBJECT_ID": "21036Z",
    "EPOCH": "2025-11-11T05:49:55.825536",
    "MEAN_MOTION": 15.06407359,
    "ECCENTRICITY": 0.0001573,
    "INCLINATION": 53.0544,
    "RA_OF_ASC_NODE": 253.3438,
    "ARG_OF_PERICENTER": 96.6732,
    "MEAN_ANOMALY": 263.4436,
    "EPHEMERIS_TYPE": 0,
    "CLASSIFICATION_TYPE": "U",
    "NORAD_CAT_ID": 48299,
    "ELEMENT_SET_NO": 999,
    "REV_AT_EPOCH": 25046,
    "BSTAR": 0.00024174000000000003,
    "MEAN_MOTION_DOT": 3.322e-05,
    "MEAN_MOTION_DDOT": 0.0,
    "TLE_LINE1": "1 48299U 21036Z   25315.24300724  .00003322  00000+0  24174-3 0  9992",
    "TLE_LINE2": "2 48299  53.0544 253.3438 0001573  96.6732 263.4436 15.06407359250467",
    "COMMENT": "Grouped by shell and plane from TLE"
  },
  {
    "OBJECT_NAME": "STARLINK-2725",
    "OBJECT_ID": "21044AV",
    "EPOCH": "2025-11-11T02:17:39.898752",
    "MEAN_MOTION": 15.06398959,
    "ECCENTRICITY": 0.000158,
    "INCLINATION": 53.0535,
    "RA_OF_ASC_NODE": 254.2485,
    "ARG_OF_PERICENTER": 95.7609,
    "MEAN_ANOMALY": 264.356,
    "EPHEMERIS_TYPE": 0,
    "CLASSIFICATION_TYPE": "U",
    "NORAD_CAT_ID": 48681,
    "ELEMENT_SET_NO": 999,
    "REV_AT_EPOCH": 24638,
    "BSTAR": 0.00027599,
    "MEAN_MOTION_DOT": 3.832e-05,
    "MEAN_MOTION_DDOT": 0.0,
    "TLE_LINE1": "1 48681U 21044AV  25315.09560068  .00003832  00000+0  27599-3 0  9998",
    "TLE_LINE2": "2 48681  53.0535 254.2485 0001580  95.7609 264.3560 15.06398959246384",
    "COMMENT": "Grouped by shell and plane from TLE"
  },
  {
    "OBJECT_NAME": "STARLINK-2741",
    "OBJECT_ID": "21044AY",
    "EPOCH": "2025-11-11T06:29:08.642688",
    "MEAN_MOTION": 15.06407324,
    "ECCENTRICITY": 0.0001266,
    "INCLINATION": 53.054,
    "RA_OF_ASC_NODE": 258.5802,
    "ARG_OF_PERICENTER": 91.384,
    "MEAN_ANOMALY": 268.7294,
    "EPHEMERIS_TYPE": 0,
    "CLASSIFICATION_TYPE": "U",
    "NORAD_CAT_ID": 48684,
    "ELEMENT_SET_NO": 999,
    "REV_AT_EPOCH": 24634,
    "BSTAR": 0.00043422,
    "MEAN_MOTION_DOT": 6.193e-05,
    "MEAN_MOTION_DDOT": 0.0,
    "TLE_LINE1": "1 48684U 21044AY  25315.27023892  .00006193  00000+0  43422-3 0  9996",
    "TLE_LINE2": "2 48684  53.0540 258.5802 0001266  91.3840 268.7294 15.06407324246348",
    "COMMENT": "Grouped by shell and plane from TLE"
  },
  {
    "OBJECT_NAME": "STARLINK-2740",
    "OBJECT_ID": "21044BE",
    "EPOCH": "2025-11-11T06:27:05.050944",
    "MEAN_MOTION": 15.06415267,
    "ECCENTRICITY": 0.0001107,
    "INCLINATION": 53.0538,
    "RA_OF_ASC_NODE": 253.2316,
    "ARG_OF_PERICENTER": 102.7306,
    "MEAN_ANOMALY": 257.3807,
    "EPHEMERIS_TYPE": 0,
    "CLASSIFICATION_TYPE": "U",
    "NORAD_CAT_ID": 48690,
    "ELEMENT_SET_NO": 999,
    "REV_AT_EPOCH": 24641,
    "BSTAR": 0.00099442,
    "MEAN_MOTION_DOT": 0.00014567,
    "MEAN_MOTION_DDOT": 0.0,
    "TLE_LINE1": "1 48690U 21044BE  25315.26880846  .00014567  00000+0  99442-3 0  9999",
    "TLE_LINE2": "2 48690  53.0538 253.2316 0001107 102.7306 257.3807 15.06415267246419",
    "COMMENT": "Grouped by shell and plane from TLE"
  },
  {
    "OBJECT_NAME": "STARLINK-2618",
    "OBJECT_ID": "21044BH",
    "EPOCH": "2025-11-11T05:37:58.308096",
    "MEAN_MOTION": 15.06404691,
    "ECCENTRICITY": 0.0001519,
    "INCLINATION": 53.0541,
    "RA_OF_ASC_NODE": 253.382,
    "ARG_OF_PERICENTER": 87.3151,
    "MEAN_ANOMALY": 272.8011,
    "EPHEMERIS_TYPE": 0,
    "CLASSIFICATION_TYPE": "U",
    "NORAD_CAT_ID": 48693,
    "ELEMENT_SET_NO": 999,
    "REV_AT_EPOCH": 24641,
    "BSTAR": 0.00014526,
    "MEAN_MOTION_DOT": 1.883e-05,
    "MEAN_MOTION_DDOT": 0.0,
    "TLE_LINE1": "1 48693U 21044BH  25315.23470264  .00001883  00000+0  14526-3 0  9995",
    "TLE_LINE2": "2 48693  53.0541 253.3820 0001519  87.3151 272.8011 15.06404691246418",
    "COMMENT": "Grouped by shell and plane from TLE"
  },
  {
    "OBJECT_NAME": "STARLINK-2748",
    "OBJECT_ID": "21044BJ",
    "EPOCH": "2025-11-11T06:27:43.285536",
    "MEAN_MOTION": 15.06409763,
    "ECCENTRICITY": 0.0001331,
    "INCLINATION": 53.0545,
    "RA_OF_ASC_NODE": 258.2169,
    "ARG_OF_PERICENTER": 95.4064,
    "MEAN_ANOMALY": 264.7077,
    "EPHEMERIS_TYPE": 0,
    "CLASSIFICATION_TYPE": "U",
    "NORAD_CAT_ID": 48694,
    "ELEMENT_SET_NO": 999,
    "REV_AT_EPOCH": 24634,
    "BSTAR": 0.00046752,
    "MEAN_MOTION_DOT": 6.691e-05,
    "MEAN_MOTION_DDOT": 0.0,
    "TLE_LINE1": "1 48694U 21044BJ  25315.26925099  .00006691  00000+0  46752-3 0  9998",
    "TLE_LINE2": "2 48694  53.0545 258.2169 0001331  95.4064 264.7077 15.06409763246347",
    "COMMENT": "Grouped by shell and plane from TLE"
  },
  {
    "OBJECT_NAME": "STARLINK-2616",
    "OBJECT_ID": "21044BK",
    "EPOCH": "2025-11-11T05:25:24.218400",
    "MEAN_MOTION": 15.06395868,
    "ECCENTRICITY": 0.0001506,
    "INCLINATION": 53.0547,
    "RA_OF_ASC_NODE": 258.4727,
    "ARG_OF_PERICENTER": 87.0516,
    "MEAN_ANOMALY": 273.0646,
    "EPHEMERIS_TYPE": 0,
    "CLASSIFICATION_TYPE": "U",
    "NORAD_CAT_ID": 48695,
    "ELEMENT_SET_NO": 999,
    "REV_AT_EPOCH": 24634,
    "BSTAR": 0.0002349,
    "MEAN_MOTION_DOT": 3.219e-05,
    "MEAN_MOTION_DDOT": 0.0,
    "TLE_LINE1": "1 48695U 21044BK  25315.22597475  .00003219  00000+0  23490-3 0  9995",
    "TLE_LINE2": "2 48695  53.0547 258.4727 0001506  87.0516 273.0646 15.06395868246340",
    "COMMENT": "Grouped by shell and plane from TLE"
  },
  {
    "OBJECT_NAME": "STARLINK-3717",
    "OBJECT_ID": "22029J",
    "EPOCH": "2025-11-11T04:58:49.631232",
    "MEAN_MOTION": 15.08843614,
    "ECCENTRICITY": 0.0001761,
    "INCLINATION": 53.2176,
    "RA_OF_ASC_NODE": 251.0059,
    "ARG_OF_PERICENTER": 84.275,
    "MEAN_ANOMALY": 275.8443,
    "EPHEMERIS_TYPE": 0,
    "CLASSIFICATION_TYPE": "U",
    "NORAD_CAT_ID": 52096,
    "ELEMENT_SET_NO": 999,
    "REV_AT_EPOCH": 20289,
    "BSTAR": 0.00015036,
    "MEAN_MOTION_DOT": 2.106e-05,
    "MEAN_MOTION_DDOT": 0.0,
    "TLE_LINE1": "1 52096U 22029J   25315.20751888  .00002106  00000+0  15036-3 0  9998",
    "TLE_LINE2": "2 52096  53.2176 251.0059 0001761  84.2750 275.8443 15.08843614202895",
    "COMMENT": "Grouped by shell and plane from TLE"
  },
  {
    "OBJECT_NAME": "STARLINK-3709",
    "OBJECT_ID": "22029Q",
    "EPOCH": "2025-11-11T05:26:42.006048",
    "MEAN_MOTION": 15.08846606,
    "ECCENTRICITY": 0.0001537,
    "INCLINATION": 53.2154,
    "RA_OF_ASC_NODE": 250.9192,
    "ARG_OF_PERICENTER": 90.7795,
    "MEAN_ANOMALY": 269.3373,
    "EPHEMERIS_TYPE": 0,
    "CLASSIFICATION_TYPE": "U",
    "NORAD_CAT_ID": 52102,
    "ELEMENT_SET_NO": 999,
    "REV_AT_EPOCH": 20290,
    "BSTAR": 0.00026602,
    "MEAN_MOTION_DOT": 3.949e-05,
    "MEAN_MOTION_DDOT": 0.0,
    "TLE_LINE1": "1 52102U 22029Q   25315.22687507  .00003949  00000+0  26602-3 0  9991",
    "TLE_LINE2": "2 52102  53.2154 250.9192 0001537  90.7795 269.3373 15.08846606202903",
    "COMMENT": "Grouped by shell and plane from TLE"
  }
]